AII-BRAVO               
1 48270U 21034C   26068.69561509  .00006142  00000+0  46527-3 0  9993
2 48270  97.5758 125.8704 0005372 233.3237 126.7495 15.02621336264679
STARLINK-5708           
1 55470U 23015X   26068.60342661  .00002508  00000+0  20067-3 0  9994
2 55470  43.0054 326.2339 0001159 261.8958  98.1752 15.02528755170743
