[{"OBJECT_NAME":"AII-BRAVO","OBJECT_ID":"2021-034C","EPOCH":"2026-03-09T16:41:41.144640","MEAN_MOTION":15.02621336,"ECCENTRICITY":0.00053718,"INCLINATION":97.5758,"RA_OF_ASC_NODE":125.8704,"ARG_OF_PERICENTER":233.3237,"MEAN_ANOMALY":126.7495,"EPHEMERIS_TYPE":0,"CLASSIFICATION_TYPE":"U","NORAD_CAT_ID":48270,"ELEMENT_SET_NO":999,"REV_AT_EPOCH":26467,"BSTAR":0.00046526558,"MEAN_MOTION_DOT":6.142e-5,"MEAN_MOTION_DDOT":0},{"OBJECT_NAME":"STARLINK-5708","OBJECT_ID":"2023-015X","EPOCH":"2026-03-09T14:28:56.059104","MEAN_MOTION":15.02528755,"ECCENTRICITY":0.0001159,"INCLINATION":43.0054,"RA_OF_ASC_NODE":326.2339,"ARG_OF_PERICENTER":261.8958,"MEAN_ANOMALY":98.1752,"EPHEMERIS_TYPE":0,"CLASSIFICATION_TYPE":"U","NORAD_CAT_ID":55470,"ELEMENT_SET_NO":999,"REV_AT_EPOCH":17074,"BSTAR":0.00020067,"MEAN_MOTION_DOT":2.508e-5,"MEAN_MOTION_DDOT":0}]
